ONEWEB-0492             
1 54114U 22138B   25084.77933041 -.00000035  00000+0 -11939-3 0  9999
2 54114  87.9232  34.0933 0001850  73.1548 286.9787 13.19728507117696
ONEWEB-0495             
1 54115U 22138C   25084.60560119 -.00000020  00000+0 -83209-4 0  9998
2 54115  87.9232  34.1393 0002533  69.4108 290.7296 13.19724887118525
ONEWEB-0497             
1 54116U 22138D   25085.14895590 -.00000041  00000+0 -13362-3 0  9998
2 54116  87.9227  34.0073 0001978  77.2236 282.9117 13.19726050118580
ONEWEB-0499             
1 54117U 22138E   25084.60086495  .00000047  00000+0  85058-4 0  9991
2 54117  87.9232  34.1299 0002310  85.9036 274.2360 13.19727008118525
ONEWEB-0500             
1 54118U 22138F   25084.60402056  .00000066  00000+0  13202-3 0  9999
2 54118  87.9228  34.1167 0001895  79.4126 280.7220 13.19727540118539
ONEWEB-0501             
1 54119U 22138G   25085.08892197  .00000074  00000+0  15359-3 0  9996
2 54119  87.9226  34.0149 0002360  74.3748 285.7645 13.19728490118574
ONEWEB-0502             
1 54120U 22138H   25085.37797031 -.00000244  00000+0 -64228-3 0  9991
2 54120  87.9226  33.9430 0002237  79.0469 281.0916 13.19725140118638
ONEWEB-0503             
1 54121U 22138J   25084.60874990 -.00000016  00000+0 -73172-4 0  9993
2 54121  87.9224  34.1011 0002077  89.7351 270.4020 13.19727726118523
